{
  "norad_id": 61548,
  "name": "STARLINK-32424",
  "history": [
    {
      "epoch": "2026-03-28T19:44:31.875360",
      "apogee_km": 476.0046817030916,
      "perigee_km": 474.4299179520767,
      "latitude_deg": -19.99376653389009,
      "longitude_deg": 53.76875040004961,
      "semi_major_axis_km": 6853.354299827583,
      "eccentricity": 0.00011489,
      "inclination_deg": 53.16,
      "raan_deg": 285.2623,
      "arg_perigee_deg": 80.1378,
      "mean_anomaly_deg": 279.9752,
      "mean_motion_rev_day": 15.30199253
    }
  ]
}